STARLINK-5128           
1 53998U 22125AL  24266.90574413 -.00001613  00000+0 -83264-4 0  9998
2 53998  53.2141  85.6396 0001377  82.5008 277.6140 15.08849835109109
STARLINK-5088           
1 54000U 22125AN  24267.47342933  .00001089  00000+0  86516-4 0  9994
2 54000  53.2151  73.5165 0001395  91.8038 268.3114 15.08847069109252
STARLINK-5109           
1 54002U 22125AQ  24267.49546112  .00000959  00000+0  78364-4 0  9990
2 54002  53.2164  72.9691 0001522  96.3613 263.7553 15.08837183109269
STARLINK-5127           
1 54010U 22125AY  24267.48071648  .00000301  00000+0  37014-4 0  9993
2 54010  53.2142  72.8701 0001479  83.9835 276.1326 15.08845247109260
STARLINK-5124           
1 54011U 22125AZ  24267.46974779  .00000722  00000+0  63469-4 0  9999
2 54011  53.2168  73.4959 0001449  90.2911 269.8247 15.08844523109250
STARLINK-5098           
1 54013U 22125BB  24267.45132470  .00001142  00000+0  89843-4 0  9995
2 54013  53.2148  73.3832 0001361  88.5580 271.5568 15.08838258109258
STARLINK-5055           
1 54015U 22125BD  24267.44764498  .00001730  00000+0  12675-3 0  9998
2 54015  53.2174  73.3574 0001244  88.0649 272.0485 15.08835920109250
STARLINK-5195           
1 54051U 22136A   24267.14040022  .00001491  00000+0  11171-3 0  9991
2 54051  53.2173 215.0718 0001466 100.7162 259.3996 15.08843968106446
STARLINK-5189           
1 54052U 22136B   24267.15874045  .00000479  00000+0  48149-4 0  9994
2 54052  53.2163 174.5579 0001411  99.6427 260.4724 15.08859232107017
STARLINK-5176           
1 54053U 22136C   24267.26919521  .00000881  00000+0  73461-4 0  9998
2 54053  53.2166 214.4546 0001518 101.8094 258.3068 15.08843250106461
STARLINK-5163           
1 54054U 22136D   24267.59302019  .00002968  00000+0  20443-3 0  9992
2 54054  53.2160 212.9213 0001446  95.0970 265.0187 15.08850833106515
STARLINK-5226           
1 54056U 22136F   24267.54144151  .00000562  00000+0  53416-4 0  9995
2 54056  53.2170 212.6109 0001480  95.5226 264.5936 15.08838597106515
STARLINK-5167           
1 54058U 22136H   24267.58196597  .00001854  00000+0  13451-3 0  9991
2 54058  53.2165 212.8528 0001468  94.8270 265.2890 15.08846351106991
STARLINK-5173           
1 54059U 22136J   24267.58565379  .00006846  00000+0  44761-3 0  9994
2 54059  53.2150 212.8771 0001444  90.2956 269.8202 15.08856625106511
STARLINK-5169           
1 54060U 22136K   24267.47797832  .00000422  00000+0  44610-4 0  9993
2 54060  53.2155 182.9672 0001269  98.9288 261.1848 15.08831575106926
STARLINK-5209           
1 54061U 22136L   24267.47658173  .00002047  00000+0  14661-3 0  9995
2 54061  53.2152 177.9159 0001349  87.0083 273.1063 15.08845914106990
STARLINK-5225           
1 54063U 22136N   24267.57460054  .00005484  00000+0  36223-3 0  9993
2 54063  53.2156 212.8083 0001322  98.6365 261.4777 15.08853155106519
STARLINK-5172           
1 54064U 22136P   24267.45916921  .00002090  00000+0  14928-3 0  9998
2 54064  53.2168 168.5749 0001025  95.4231 264.6878 15.08852436107122
STARLINK-5187           
1 54065U 22136Q   24267.56722930  .00000951  00000+0  77837-4 0  9999
2 54065  53.2173 212.7637 0001578  80.9731 279.1440 15.08853682106998
