OBJECT_NAME,OBJECT_ID,EPOCH,MEAN_MOTION,ECCENTRICITY,INCLINATION,RA_OF_ASC_NODE,ARG_OF_PERICENTER,MEAN_ANOMALY,EPHEMERIS_TYPE,CLASSIFICATION_TYPE,NORAD_CAT_ID,ELEMENT_SET_NO,REV_AT_EPOCH,BSTAR,MEAN_MOTION_DOT,MEAN_MOTION_DDOT
STARLINK-5128,2022-125AL,2024-09-22T21:44:16.292832,15.08849835,.0001377,53.2141,85.6396,82.5008,277.6140,0,U,53998,999,10910,-.83264E-4,-.1613E-4,0
STARLINK-5088,2022-125AN,2024-09-23T11:21:44.294112,15.08847069,.0001395,53.2151,73.5165,91.8038,268.3114,0,U,54000,999,10925,.86516E-4,.1089E-4,0
STARLINK-5109,2022-125AQ,2024-09-23T11:53:27.840768,15.08837183,.0001522,53.2164,72.9691,96.3613,263.7553,0,U,54002,999,10926,.78364E-4,.959E-5,0
STARLINK-5127,2022-125AY,2024-09-23T11:32:13.903872,15.08845247,.0001479,53.2142,72.8701,83.9835,276.1326,0,U,54010,999,10926,.37014E-4,.301E-5,0
STARLINK-5124,2022-125AZ,2024-09-23T11:16:26.209056,15.08844523,.0001449,53.2168,73.4959,90.2911,269.8247,0,U,54011,999,10925,.63469E-4,.722E-5,0
STARLINK-5098,2022-125BB,2024-09-23T10:49:54.454080,15.08838258,.0001361,53.2148,73.3832,88.5580,271.5568,0,U,54013,999,10925,.89843E-4,.1142E-4,0
STARLINK-5055,2022-125BD,2024-09-23T10:44:36.526272,15.08835920,.0001244,53.2174,73.3574,88.0649,272.0485,0,U,54015,999,10925,.12675E-3,.173E-4,0
STARLINK-5195,2022-136A,2024-09-23T03:22:10.579008,15.08843968,.0001466,53.2173,215.0718,100.7162,259.3996,0,U,54051,999,10644,.11171E-3,.1491E-4,0
STARLINK-5189,2022-136B,2024-09-23T03:48:35.174880,15.08859232,.0001411,53.2163,174.5579,99.6427,260.4724,0,U,54052,999,10701,.48149E-4,.479E-5,0
STARLINK-5176,2022-136C,2024-09-23T06:27:38.466144,15.08843250,.0001518,53.2166,214.4546,101.8094,258.3068,0,U,54053,999,10646,.73461E-4,.881E-5,0
STARLINK-5163,2022-136D,2024-09-23T14:13:56.944416,15.08850833,.0001446,53.2160,212.9213,95.0970,265.0187,0,U,54054,999,10651,.20443E-3,.2968E-4,0
STARLINK-5226,2022-136F,2024-09-23T12:59:40.546464,15.08838597,.000148,53.2170,212.6109,95.5226,264.5936,0,U,54056,999,10651,.53416E-4,.562E-5,0
STARLINK-5167,2022-136H,2024-09-23T13:58:01.859808,15.08846351,.0001468,53.2165,212.8528,94.8270,265.2890,0,U,54058,999,10651,.13451E-3,.1854E-4,0
STARLINK-5173,2022-136J,2024-09-23T14:03:20.487456,15.08856625,.0001444,53.2150,212.8771,90.2956,269.8202,0,U,54059,999,10651,.44761E-3,.6846E-4,0
STARLINK-5169,2022-136K,2024-09-23T11:28:17.326848,15.08831575,.0001269,53.2155,182.9672,98.9288,261.1848,0,U,54060,999,10692,.4461E-4,.422E-5,0
STARLINK-5209,2022-136L,2024-09-23T11:26:16.661472,15.08845914,.0001349,53.2152,177.9159,87.0083,273.1063,0,U,54061,999,10699,.14661E-3,.2047E-4,0
STARLINK-5225,2022-136N,2024-09-23T13:47:25.486656,15.08853155,.0001322,53.2156,212.8083,98.6365,261.4777,0,U,54063,999,10651,.36223E-3,.5484E-4,0
STARLINK-5172,2022-136P,2024-09-23T11:01:12.219744,15.08852436,.0001025,53.2168,168.5749,95.4231,264.6878,0,U,54064,999,10712,.14928E-3,.209E-4,0
STARLINK-5187,2022-136Q,2024-09-23T13:36:48.611520,15.08853682,.0001578,53.2173,212.7637,80.9731,279.1440,0,U,54065,999,10651,.77837E-4,.951E-5,0
